sat09619
1 09619U 75004FU  20046.20729676  .00000134  00000-0  51415-4 0  9990
2 09619  97.4352 299.6072 0115410 317.1519  42.0721 14.39437177337703
